STARLINK-1815
1 26713C 20073AV  21325.16164674  .00003748  00000-0  25122-3 0  3251
2 26713  53.0552  87.5162 0001327  77.1332 218.7984 15.06382402    19
